{
  "links" : {
    "next" : "https://api.nasa.gov/neo/rest/v1/feed?start_date=2010-02-16&end_date=2010-02-16&detailed=true&api_key=t0TVs3DtDT2H8Oy2Zy8m2eVrNsAVKAexjcZXUckd",
    "prev" : "https://api.nasa.gov/neo/rest/v1/feed?start_date=2010-02-14&end_date=2010-02-14&detailed=true&api_key=t0TVs3DtDT2H8Oy2Zy8m2eVrNsAVKAexjcZXUckd",
    "self" : "https://api.nasa.gov/neo/rest/v1/feed?start_date=2010-02-15&end_date=2010-02-15&detailed=true&api_key=t0TVs3DtDT2H8Oy2Zy8m2eVrNsAVKAexjcZXUckd"
  },
  "element_count" : 11,
  "near_earth_objects" : {
    "2010-02-15" : [ {
      "links" : {
        "self" : "https://api.nasa.gov/neo/rest/v1/neo/3772993?api_key=t0TVs3DtDT2H8Oy2Zy8m2eVrNsAVKAexjcZXUckd"
      },
      "neo_reference_id" : "3772993",
      "name" : "(2017 FY101)",
      "nasa_jpl_url" : "http://ssd.jpl.nasa.gov/sbdb.cgi?sstr=3772993",
      "absolute_magnitude_h" : 27.197,
      "estimated_diameter" : {
        "kilometers" : {
          "estimated_diameter_min" : 0.0096639567,
          "estimated_diameter_max" : 0.0216092642
        },
        "meters" : {
          "estimated_diameter_min" : 9.6639567269,
          "estimated_diameter_max" : 21.609264173
        },
        "miles" : {
          "estimated_diameter_min" : 0.0060049025,
          "estimated_diameter_max" : 0.0134273701
        },
        "feet" : {
          "estimated_diameter_min" : 31.705895788,
          "estimated_diameter_max" : 70.8965382695
        }
      },
      "is_potentially_hazardous_asteroid" : false,
      "close_approach_data" : [ {
        "close_approach_date" : "2010-02-15",
        "epoch_date_close_approach" : 1266220800000,
        "relative_velocity" : {
          "kilometers_per_second" : "8.754983769",
          "kilometers_per_hour" : "31517.9415683528",
          "miles_per_hour" : "19584.0231928468"
        },
        "miss_distance" : {
          "astronomical" : "0.3146362273",
          "lunar" : "122.3934936523",
          "kilometers" : "47068912",
          "miles" : "29247266"
        },
        "orbiting_body" : "Earth"
      } ],
      "orbital_data" : {
        "orbit_id" : "3",
        "orbit_determination_date" : "2017-04-06 08:19:01",
        "orbit_uncertainty" : "6",
        "minimum_orbit_intersection" : ".00223976",
        "jupiter_tisserand_invariant" : "6.091",
        "epoch_osculation" : "2458000.5",
        "eccentricity" : ".3458404440467126",
        "semi_major_axis" : ".986420173735552",
        "inclination" : "2.500098601413876",
        "ascending_node_longitude" : "6.219294469626103",
        "orbital_period" : "357.8420270713033",
        "perihelion_distance" : ".6452761828342133",
        "perihelion_argument" : "294.9074533476469",
        "aphelion_distance" : "1.327564164636891",
        "perihelion_time" : "2457913.918084464956",
        "mean_anomaly" : "87.10404936982205",
        "mean_motion" : "1.006030518400419",
        "equinox" : "J2000"
      }
    }, {
      "links" : {
        "self" : "https://api.nasa.gov/neo/rest/v1/neo/3763276?api_key=t0TVs3DtDT2H8Oy2Zy8m2eVrNsAVKAexjcZXUckd"
      },
      "neo_reference_id" : "3763276",
      "name" : "(2016 VC1)",
      "nasa_jpl_url" : "http://ssd.jpl.nasa.gov/sbdb.cgi?sstr=3763276",
      "absolute_magnitude_h" : 21.7,
      "estimated_diameter" : {
        "kilometers" : {
          "estimated_diameter_min" : 0.1214940408,
          "estimated_diameter_max" : 0.2716689341
        },
        "meters" : {
          "estimated_diameter_min" : 121.4940407996,
          "estimated_diameter_max" : 271.6689340891
        },
        "miles" : {
          "estimated_diameter_min" : 0.0754928736,
          "estimated_diameter_max" : 0.1688071972
        },
        "feet" : {
          "estimated_diameter_min" : 398.6025088171,
          "estimated_diameter_max" : 891.3023057169
        }
      },
      "is_potentially_hazardous_asteroid" : true,
      "close_approach_data" : [ {
        "close_approach_date" : "2010-02-15",
        "epoch_date_close_approach" : 1266220800000,
        "relative_velocity" : {
          "kilometers_per_second" : "15.2051906876",
          "kilometers_per_hour" : "54738.6864752866",
          "miles_per_hour" : "34012.4910490468"
        },
        "miss_distance" : {
          "astronomical" : "0.3219599238",
          "lunar" : "125.2424087524",
          "kilometers" : "48164516",
          "miles" : "29928044"
        },
        "orbiting_body" : "Earth"
      } ],
      "orbital_data" : {
        "orbit_id" : "19",
        "orbit_determination_date" : "2017-07-21 15:56:19",
        "orbit_uncertainty" : "3",
        "minimum_orbit_intersection" : ".0353902",
        "jupiter_tisserand_invariant" : "3.213",
        "epoch_osculation" : "2458000.5",
        "eccentricity" : ".6873140203144229",
        "semi_major_axis" : "2.285817992015145",
        "inclination" : "13.400704181385",
        "ascending_node_longitude" : "245.731124134221",
        "orbital_period" : "1262.29510200094",
        "perihelion_distance" : ".7147432382161742",
        "perihelion_argument" : "241.4180394294632",
        "aphelion_distance" : "3.856892745814115",
        "perihelion_time" : "2457755.056411359223",
        "mean_anomaly" : "69.99923533777134",
        "mean_motion" : ".2851948006685143",
        "equinox" : "J2000"
      }
    } ]
  }
}